[{"OBJECT_NAME":"STARLINK-3645","OBJECT_ID":"2022-025AG","EPOCH":"2026-03-09T05:19:02.009856","MEAN_MOTION":15.08837507,"ECCENTRICITY":0.00013272,"INCLINATION":53.2184,"RA_OF_ASC_NODE":41.067,"ARG_OF_PERICENTER":81.2225,"MEAN_ANOMALY":278.8918,"EPHEMERIS_TYPE":0,"CLASSIFICATION_TYPE":"U","NORAD_CAT_ID":51986,"ELEMENT_SET_NO":999,"REV_AT_EPOCH":22099,"BSTAR":-2.4536897e-5,"MEAN_MOTION_DOT":-6.78e-6,"MEAN_MOTION_DDOT":0},{"OBJECT_NAME":"SL-24 PLAT","OBJECT_ID":"2014-033AR","EPOCH":"2026-03-09T22:47:27.152448","MEAN_MOTION":15.0919716,"ECCENTRICITY":0.00052059,"INCLINATION":98.0981,"RA_OF_ASC_NODE":61.9435,"ARG_OF_PERICENTER":212.2329,"MEAN_ANOMALY":147.8581,"EPHEMERIS_TYPE":0,"CLASSIFICATION_TYPE":"U","NORAD_CAT_ID":40049,"ELEMENT_SET_NO":999,"REV_AT_EPOCH":63724,"BSTAR":0.00046923352,"MEAN_MOTION_DOT":7.393e-5,"MEAN_MOTION_DDOT":0}]
